GLOBALSTAR M069         
1 31573U 07020C   26197.37845848 -.00000112  00000+0 -18316-3 0  9997
2 31573  52.0008 169.5027 0001620 212.8917 303.8980 12.23472250882372
GLOBALSTAR M072         
1 31574U 07020D   26197.57036260 -.00000075  00000+0  11835-3 0  9996
2 31574  51.9949  22.0193 0001640  38.4695 355.8728 11.91658857878486
GLOBALSTAR M066         
1 32265U 07048C   26197.30883654 -.00000047  00000+0  40403-3 0  9994
2 32265  51.9608 334.3135 0005581 104.0043 262.0629 12.30389552863813
GLOBALSTAR M079         
1 37188U 10054A   26197.50398485 -.00000107  00000+0 -17722-4 0  9996
2 37188  52.0056  19.4254 0001126  79.9695 297.7003 12.62266420726258
GLOBALSTAR M074         
1 37189U 10054B   26197.53388777 -.00000105  00000+0 -81219-5 0  9994
2 37189  52.0031  18.5951 0000866  94.2975 299.2776 12.62262037726868
GLOBALSTAR M076         
1 37190U 10054C   26197.56092322 -.00000090  00000+0  75277-4 0  9995
2 37190  52.0046  18.7187 0001098  94.1979 302.1974 12.62262456726588
GLOBALSTAR M077         
1 37191U 10054D   26197.51351427 -.00000102  00000+0 -44940-3 0  9992
2 37191  51.9961 104.8606 0002240 227.7715 303.2903 11.67547399724564
GLOBALSTAR M075         
1 37192U 10054E   26197.64892172 -.00000090  00000+0  77643-4 0  9996
2 37192  51.9955  60.4882 0000766  66.6670 310.3491 12.62267876725660
GLOBALSTAR M073         
1 37193U 10054F   26197.41538367 -.00000101  00000+0  14014-4 0  9991
2 37193  52.0081 335.3228 0001051  97.8845 295.7014 12.62266913727625
GLOBALSTAR M083         
1 37739U 11033A   26197.43870102 -.00000074  00000+0  16817-3 0  9994
2 37739  51.9864 283.4418 0000751 108.0006 332.8633 12.62264232696641
GLOBALSTAR M088         
1 37740U 11033B   26197.43077402 -.00000118  00000+0 -77863-4 0  9997
2 37740  52.0189 189.9625 0000055  78.3233  85.2183 12.62269485692182
GLOBALSTAR M091         
1 37741U 11033C   26197.36623990 -.00000116  00000+0 -65840-4 0  9999
2 37741  51.9982 153.0808 0000449  25.7022 145.0301 12.62264251692965
GLOBALSTAR M085         
1 37742U 11033D   26197.19112476 -.00000091  00000+0  70669-4 0  9999
2 37742  52.0125 104.9316 0000797  42.5641 112.0435 12.62264349693451
GLOBALSTAR M081         
1 37743U 11033E   26197.45905486 -.00000099  00000+0  28382-4 0  9993
2 37743  51.9955 106.5188 0000693  55.7935 116.7743 12.62265285693636
GLOBALSTAR M089         
1 37744U 11033F   26197.62280999 -.00000091  00000+0  72959-4 0  9999
2 37744  51.9936  60.1735 0000702  90.9385 287.2345 12.62267589694508
GLOBALSTAR M084         
1 38040U 11080A   26197.66448201 -.00000096  00000+0  43179-4 0  9994
2 38040  52.0022 287.5451 0000791 131.9235  15.4992 12.62263528672485
GLOBALSTAR M080         
1 38041U 11080B   26197.46284884 -.00000079  00000+0  13994-3 0  9990
2 38041  52.0068 289.8875 0000292  81.0928 359.4146 12.62257497672582
GLOBALSTAR M082         
1 38042U 11080C   26197.31964853 -.00000080  00000+0  13065-3 0  9997
2 38042  52.0062 245.8274 0000196  83.2035 356.2319 12.62264285673275
GLOBALSTAR M092         
1 38043U 11080D   26197.52999740 -.00000089  00000+0  81223-4 0  9995
2 38043  52.0105 335.5840 0000775 104.5526 330.5808 12.62267816671757
GLOBALSTAR M090         
1 38044U 11080E   26197.52359488 -.00000076  00000+0  15383-3 0  9994
2 38044  52.0104 239.1716 0000422  89.7355  75.7166 12.62269582673413
GLOBALSTAR M086         
1 38045U 11080F   26197.43207166 -.00000091  00000+0  72064-4 0  9997
2 38045  51.9878 239.3311 0001488 113.3685 259.7771 12.62287821673351
GLOBALSTAR M097         
1 39072U 13005A   26197.30261827 -.00000124  00000+0 -11186-3 0  9992
2 39072  52.0028 154.7050 0000469  41.0496 319.0406 12.62271360620589
GLOBALSTAR M093         
1 39073U 13005B   26197.59259325 -.00000112  00000+0 -45422-4 0  9992
2 39073  52.0090 147.1805 0000691  46.4566 313.6358 12.62266331620574
GLOBALSTAR M094         
1 39074U 13005C   26197.59244975 -.00000088  00000+0  89104-4 0  9994
2 39074  51.9971  61.2691 0001021  64.7871 295.3102 12.62264192622185
GLOBALSTAR M096         
1 39075U 13005D   26197.13087083 -.00000094  00000+0  53762-4 0  9998
2 39075  52.0071 111.4982 0000764  44.1269 315.9659 12.62265718621041
GLOBALSTAR M078         
1 39076U 13005E   26197.18318524 -.00000123  00000+0 -10859-3 0  9994
2 39076  51.9845 195.3095 0000854 340.9626  19.1209 12.62260137619679
GLOBALSTAR M095         
1 39077U 13005F   26197.36823161 -.00000122  00000+0 -99959-4 0  9991
2 39077  52.0053 192.3909 0000484  14.8073 345.2808 12.62264129619556
GLOBALSTAR M087         
1 52888U 22064A   26197.61889042 -.00000092  00000+0  68113-4 0  9992
2 52888  52.0018 332.8500 0000907  85.7963 274.3007 12.62269395194859
